[{"OBJECT_NAME":"STARLINK-5004","OBJECT_ID":"2022-119AP","EPOCH":"2026-03-09T22:19:47.472384","MEAN_MOTION":15.08837186,"ECCENTRICITY":0.00013472,"INCLINATION":53.2183,"RA_OF_ASC_NODE":312.8687,"ARG_OF_PERICENTER":85.7179,"MEAN_ANOMALY":274.3967,"EPHEMERIS_TYPE":0,"CLASSIFICATION_TYPE":"U","NORAD_CAT_ID":53923,"ELEMENT_SET_NO":999,"REV_AT_EPOCH":19186,"BSTAR":1.972859e-6,"MEAN_MOTION_DOT":-2.57e-6,"MEAN_MOTION_DDOT":0},{"OBJECT_NAME":"OBJECT C","OBJECT_ID":"2025-292C","EPOCH":"2026-03-09T21:40:07.439232","MEAN_MOTION":15.0561637,"ECCENTRICITY":0.00142936,"INCLINATION":97.6364,"RA_OF_ASC_NODE":145.6037,"ARG_OF_PERICENTER":339.8589,"MEAN_ANOMALY":20.2072,"EPHEMERIS_TYPE":0,"CLASSIFICATION_TYPE":"U","NORAD_CAT_ID":66995,"ELEMENT_SET_NO":999,"REV_AT_EPOCH":1350,"BSTAR":0.00047642755,"MEAN_MOTION_DOT":6.828e-5,"MEAN_MOTION_DDOT":0}]
